KANOPUS-V 6             
1 43877U 18111B   22215.57883281  .00000739  00000+0  37005-4 0  9992
2 43877  97.4278 123.5375 0001649  94.8566  26.6483 15.20440108197700
ISAT                    
1 43879U 18111D   22214.55073665  .00001776  00000+0  15423-3 0  9999
2 43879  97.6610 119.3264 0013435 156.9839 203.1988 14.98214373196576
UWE-4                   
1 43880U 18111E   22214.48261564  .00001568  00000+0  13633-3 0  9990
2 43880  97.6637 119.9883 0012712 157.9081 202.2692 14.98357971196593
D-STAR ONE (SPARROW)    
1 43881U 18111F   22215.29639947  .00001786  00000+0  15391-3 0  9990
2 43881  97.6665 121.0327 0012809 150.4323 209.7627 14.98533226194728
LEMUR-2-CHRISTINAHOLT   
1 43882U 18111G   22215.15956258  .00002295  00000+0  19063-3 0  9999
2 43882  97.6692 122.0781 0013263 142.9643 217.2499 14.99675808194769
LEMUR-2-TINYKEV         
1 43883U 18111H   22215.15714996  .00002830  00000+0  23276-3 0  9997
2 43883  97.6678 122.2625 0013530 140.8959 219.3245 14.99868774194776
LEMUR-2-REMY-COLTON     
1 43884U 18111J   22215.51390967  .00001090  00000+0  92069-4 0  9990
2 43884  97.6767 123.1319 0007565 162.5191 197.6294 15.00138875194852
LEMUR-2-GUSTAVO         
1 43885U 18111K   22214.48422919  .00001876  00000+0  15672-3 0  9995
2 43885  97.6687 121.7669 0013553 151.1264 209.0712 14.99671197196676
LEMUR-2-ZO              
1 43886U 18111L   22214.54067047  .00001559  00000+0  13076-3 0  9994
2 43886  97.6688 122.1061 0012958 161.2491 198.9212 14.99751332196694
LEMUR-2-NATALIEMURRAY   
1 43887U 18111M   22215.30169255  .00002421  00000+0  19953-3 0  9993
2 43887  97.6760 123.1498 0011635 129.2373 230.9885 14.99935573196824
LEMUR-2-SARAHBETTYBOO   
1 43888U 18111N   22215.19462353  .00001054  00000+0  89585-4 0  9996
2 43888  97.6723 123.3007 0010530 167.1805 192.9688 14.99956902196812
LEMUR-2-DAISY-HARPER    
1 43889U 18111P   22215.19339860  .00001015  00000+0  86326-4 0  9990
2 43889  97.6736 123.4906 0010246 168.0644 192.0824 15.00008146196815
GRUS-1A                 
1 43890U 18111Q   22215.27339089  .00000600  00000+0  62224-4 0  9994
2 43890  97.6330 111.3730 0003601 202.1617 157.9466 14.93499821196250
2018-111R               
1 43891U 18111R   22215.20408140  .00000627  00000+0  28348-4 0  9991
2 43891  97.1757  95.7407 0024182 291.0390 186.7787 15.24205803200192
FLOCK 3K-4              
1 43893U 18111T   22215.12463183  .00006105  00000+0  13189-3 0  9995
2 43893  97.1849 105.1524 0011109 262.4793  97.5194 15.44823331200775
FLOCK 3K-5              
1 43899U 18111Z   22215.19885388  .00025349  00000+0  68108-3 0  9995
2 43899  97.1879 104.7885 0014056 252.8807 107.0899 15.37800250200756
FLOCK 3K-7              
1 43902U 18111AC  22215.20785407  .00026226  00000+0  68513-3 0  9998
2 43902  97.1875 104.8926 0013980 251.3451 108.6278 15.38660094200768
FLOCK 3K-10             
1 43905U 18111AF  22215.20878879  .00006292  00000+0  13741-3 0  9991
2 43905  97.1854 105.3507 0009909 249.1874 110.8314 15.44499381200794
FLOCK 3K-9              
1 43906U 18111AG  22215.13176815  .00004572  00000+0  12229-3 0  9994
2 43906  97.1867 104.7728 0014277 249.2092 110.7624 15.38454095200759
ZACUBE-2                
1 43907U 18111AH  22215.14897740  .00003335  00000+0  12278-3 0  9993
2 43907  97.1848  99.7947 0017773 274.3974 238.5477 15.28388415200427
LUME 1                  
1 43908U 18111AJ  22215.24916314  .00004641  00000+0  15624-3 0  9993
2 43908  97.1849 101.5945 0016154 266.4447  93.4947 15.31130242200559
YUNHAI-2 1              
1 43909U 18112A   22215.32681563  .00000047  00000+0  83839-4 0  9999
2 43909  50.0131 279.6842 0000341 218.1739 141.9149 14.27795567189037
YUNHAI-2 2              
1 43910U 18112B   22215.35434439  .00000057  00000+0  87662-4 0  9991
2 43910  50.0147 343.1316 0004751 297.9550  62.0881 14.27795132188150
YUNHAI-2 3              
1 43911U 18112C   22215.37572795  .00000059  00000+0  88511-4 0  9998
2 43911  50.0123 222.4878 0001238 217.5309 142.5497 14.27789759189835
YUNHAI-2 4              
1 43912U 18112D   22215.07402098  .00000025  00000+0  74942-4 0  9990
2 43912  50.0109 163.9809 0015416  62.3391 297.9070 14.27789121185452
YUNHAI-2 5              
1 43913U 18112E   22214.67302083 -.00000148  00000+0  53088-5 0  9995
2 43913  50.0092  45.3146 0005570  79.2294 280.9249 14.27788104187205
HONGYAN 1 (CHONGQING)   
1 43914U 18112F   22215.07543327 -.00000071  00000+0  10000-3 0  9999
2 43914  50.0084  37.8137 0006465 272.0917  87.9211 13.43712698176509
YUNHAI-2 6              
1 43915U 18112G   22215.11514563  .00000043  00000+0  82027-4 0  9992
2 43915  50.0127 103.8529 0007699  44.1316 316.0206 14.27788023186361
CHINASAT 2D (ZX 2D)     
1 43920U 19001A   22215.25499743 -.00000330  00000+0  00000+0 0  9999
2 43920   0.0074 121.3898 0001016 304.8183 107.4267  1.00271928 13177
IRIDIUM 180             
1 43922U 19002A   22214.85831765  .00000049  00000+0  10523-4 0  9993
2 43922  86.3962 224.6098 0002861  94.8603 265.2920 14.34216066186277
IRIDIUM 176             
1 43923U 19002B   22215.09078108  .00000128  00000+0  16402-4 0  9995
2 43923  86.6098 224.5484 0002595  91.2004 268.9510 14.72263167191197
IRIDIUM 168             
1 43924U 19002C   22215.06128490  .00000056  00000+0  13081-4 0  9993
2 43924  86.3965 224.5624 0002566  89.3839 270.7651 14.34216398186289
IRIDIUM 173             
1 43925U 19002D   22214.83929459  .00000060  00000+0  14306-4 0  9998
2 43925  86.3961 224.6018 0002527  91.5508 268.5977 14.34215790186235
IRIDIUM 169             
1 43926U 19002E   22215.11382880  .00000103  00000+0  27123-4 0  9991
2 43926  86.4199 256.0811 0003333 350.5870   9.5266 14.38599742186922
IRIDIUM 172             
1 43927U 19002F   22214.48411794  .00000073  00000+0  19077-4 0  9993
2 43927  86.3961 224.7539 0002598  92.0246 268.1247 14.34216690186190
IRIDIUM 175             
1 43928U 19002G   22215.08467024  .00000128  00000+0  16414-4 0  9991
2 43928  86.6100 224.3828 0002641  89.4381 270.7139 14.72251940191188
IRIDIUM 171             
1 43929U 19002H   22215.09299081  .00000058  00000+0  13519-4 0  9994
2 43929  86.3970 224.6485 0002549  88.8094 271.3394 14.34215187186279
IRIDIUM 170             
1 43930U 19002J   22215.09697233  .00000126  00000+0  16009-4 0  9990
2 43930  86.6098 224.5513 0002541  86.1105 274.0403 14.72262251191208
IRIDIUM 167             
1 43931U 19002K   22215.08665431  .00000067  00000+0  16993-4 0  9991
2 43931  86.3962 224.5120 0002716  92.2362 267.9145 14.34216505186271
RAPIS-1                 
1 43932U 19003A   22215.17022609  .00002839  00000+0  17207-3 0  9994
2 43932  97.1734 221.8405 0001566 286.6885  73.4174 15.11308171195231
RISESAT                 
1 43934U 19003C   22215.17917758  .00013274  00000+0  44841-3 0  9993
2 43934  97.1315 242.2452 0013392  20.1264  20.1539 15.30690804196782
MICRODRAGON             
1 43935U 19003D   22215.30447577  .00003053  00000+0  11990-3 0  9999
2 43935  97.1345 243.3170 0016882  14.9650 345.2085 15.26297510196848
NEXUS (FO-99)           
1 43937U 19003F   22215.02628123  .00006296  00000+0  20724-3 0  9995
2 43937  97.1275 246.5868 0019344 353.0372   7.0598 15.31659515197100
ALE-1                   
1 43938U 19003G   22215.36822440  .00007856  00000+0  12893-3 0  9992
2 43938  97.1351 253.7983 0011007 337.9778  22.1001 15.52632836197515
AOBA VELOX-IV           
1 43940U 19003J   22215.05415930  .00013830  00000+0  35054-3 0  9996
2 43940  97.1220 249.5867 0015243 342.2585  17.8127 15.39698423197292
JILIN-01-09             
1 43943U 19005B   22215.43249053  .00001078  00000+0  63146-4 0  9999
2 43943  97.5028 309.2746 0014193 155.3127 273.5128 15.13856516194990
XIAOXIANG 3             
1 43944U 19005C   22215.23898461  .00004608  00000+0  22510-3 0  9992
2 43944  97.5041 311.1926 0011982 146.7673 297.2027 15.18694787195099
JILIN-01-10             
1 43946U 19005E   22215.46520054  .00001405  00000+0  80897-4 0  9994
2 43946  97.5032 309.3490 0019920 150.4392 275.0023 15.13903289194933
HELLAS-SAT 4 & SGS-1    
1 44034U 19007A   22215.29401718  .00000159  00000+0  00000+0 0  9999
2 44034   0.0692 121.1260 0006377  28.4997 307.0531  1.00270140 13175
GSAT-31                 
1 44035U 19007B   22215.26160487  .00000132  00000+0  00000+0 0  9993
2 44035   0.0510  99.1620 0001702  76.5259 278.1760  1.00272182 12798
2018-092C               
1 44041U 18092C   22215.40803100  .00006851  00000+0  14218-3 0  9999
2 44041  51.6370 201.4700 0002479 298.1792 217.7206 15.46910694195916
2018-092D               
1 44042U 18092D   22215.11700580  .00006423  00000+0  13518-3 0  9993
2 44042  51.6361 204.2275 0002234 295.1357 110.2220 15.46616636208814
EGYPTSAT-A (MISRSAT-A)  
1 44047U 19008A   22215.21092950  .00000189  00000+0  37779-4 0  9991
2 44047  98.0103 279.2884 0001046  95.4629 264.6710 14.72272417185184
NUSANTARA SATU          
1 44048U 19009A   22214.87202299 -.00000228  00000+0  00000+0 0  9990
2 44048   0.0369 278.4142 0001986 208.7323 284.2436  1.00270894 12572
ONEWEB-0012             
1 44057U 19010A   22214.34135075  .00000204  00000+0  50040-3 0  9997
2 44057  87.9155 150.4050 0002612 100.8432 259.2993 13.16592711165390
ONEWEB-0010             
1 44058U 19010B   22214.82264265  .00000024  00000+0  28794-4 0  9997
2 44058  87.9155 150.3040 0002595  85.2673 274.8754 13.16593035165503
ONEWEB-0008             
1 44059U 19010C   22214.54394932 -.00000034  00000+0 -12237-3 0  9999
2 44059  87.9157 150.3973 0001543  81.5665 278.5640 13.16592243165586
ONEWEB-0007             
1 44060U 19010D   22214.44431547  .00000161  00000+0  39261-3 0  9999
2 44060  87.9122 180.6099 0002136  97.2058 262.9315 13.15550901165360
ONEWEB-0006             
1 44061U 19010E   22214.43162413  .00000194  00000+0  48107-3 0  9997
2 44061  87.9157 180.7009 0002416  90.7432 269.3975 13.15550492165410
